KUIPER-00213            
1 67777U 26030P   26071.93223664  .00026079  00000+0  81949-3 0  9993
2 67777  51.8798 204.0369 0015407  74.0889 286.1792 15.32708014  5585
KUIPER-00214            
1 67778U 26030Q   26071.80127191  .00021647  00000+0  59883-3 0  9996
2 67778  51.8832 203.9405 0000554 351.6615   8.4362 15.36944551  5571
KUIPER-00215            
1 67779U 26030R   26070.73596724  .00032228  00000+0  95286-3 0  9994
2 67779  51.8834 209.5383 0010520  66.2297 293.9791 15.34588543  5402
KUIPER-00218            
1 67780U 26030S   26071.63471860  .00032970  00000+0  95182-3 0  9998
2 67780  51.8841 205.0636 0007103  58.4826 301.6853 15.35355842  5544
KUIPER-00220            
1 67781U 26030T   26071.57768530  .00036374  00000+0  10621-2 0  9991
2 67781  51.8815 205.4205 0008536  64.1453 296.0412 15.34940236  5536
KUIPER-00222            
1 67782U 26030U   26071.74189340  .00034660  00000+0  11011-2 0  9997
2 67782  51.8794 205.0095 0017381  76.7472 283.5450 15.32177597  5559
KUIPER-00223            
1 67783U 26030V   26071.78291178  .00037710  00000+0  11229-2 0  9995
2 67783  51.8835 204.5516 0012400  67.4257 292.8039 15.34266835  5566
KUIPER-00225            
1 67784U 26030W   26071.75240720  .00622202  00000+0  16523-1 0  9997
2 67784  51.8813 204.3497 0003028  38.5587 321.5615 15.35574856  5566
KUIPER-00226            
1 67785U 26030X   26071.76034215  .00035628  00000+0  11852-2 0  9990
2 67785  51.8829 205.1308 0019441  80.7069 279.6113 15.30649080  5556
KUIPER-00259            
1 67786U 26030Y   26071.76745251  .00035957  00000+0  10401-2 0  9994
2 67786  51.8816 204.4470 0008873  57.5068 302.6775 15.35239757  5566
KUIPER-00260            
1 67787U 26030Z   26071.74201264  .00038066  00000+0  10514-2 0  9993
2 67787  51.8805 204.2810 0001775  41.9993 318.1129 15.36687579  5474
KUIPER-00262            
1 67788U 26030AA  26071.73749815  .00044675  00000+0  12236-2 0  9998
2 67788  51.8819 204.2534 0000873  34.0598 326.0445 15.36877241  5561
